{
 "generated_at": "2026-07-06T09:00:32Z",
 "sources": [
  {
   "name": "CelesTrak",
   "url": "https://celestrak.org/NORAD/elements/",
   "license": "frei verfügbar; Attribution. Ursprünglich USSPACECOM/Space-Track."
  },
  {
   "name": "GCAT (J. McDowell, planet4589.org)",
   "url": "https://planet4589.org/space/gcat/",
   "license": "CC-BY 4.0"
  }
 ],
 "satellites": [
  {
   "norad": 41167,
   "name": "KENT RIDGE 1",
   "intl": "2015-077B",
   "group": "resource",
   "gcat": {
    "class": null,
    "category": null,
    "owner": null,
    "state": null
   },
   "omm": {
    "OBJECT_NAME": "KENT RIDGE 1",
    "OBJECT_ID": "2015-077B",
    "EPOCH": "2026-07-05T04:06:51.445728",
    "MEAN_MOTION": 15.23242474,
    "ECCENTRICITY": 0.0008162,
    "INCLINATION": 14.9788,
    "RA_OF_ASC_NODE": 132.2238,
    "ARG_OF_PERICENTER": 133.451,
    "MEAN_ANOMALY": 226.6491,
    "EPHEMERIS_TYPE": 0,
    "CLASSIFICATION_TYPE": "U",
    "NORAD_CAT_ID": 41167,
    "ELEMENT_SET_NO": 999,
    "REV_AT_EPOCH": 58384,
    "BSTAR": 0.00018027,
    "MEAN_MOTION_DOT": 0.00005171,
    "MEAN_MOTION_DDOT": 0
   }
  },
  {
   "norad": 40536,
   "name": "KOMPSAT-3A",
   "intl": "2015-014A",
   "group": "resource",
   "gcat": {
    "class": "C",
    "category": "IMG",
    "owner": "KARI",
    "state": "KR"
   },
   "omm": {
    "OBJECT_NAME": "KOMPSAT-3A",
    "OBJECT_ID": "2015-014A",
    "EPOCH": "2026-07-05T14:07:27.601824",
    "MEAN_MOTION": 15.54994163,
    "ECCENTRICITY": 0.00570257,
    "INCLINATION": 97.6892,
    "RA_OF_ASC_NODE": 179.3081,
    "ARG_OF_PERICENTER": 109.3248,
    "MEAN_ANOMALY": 251.4184,
    "EPHEMERIS_TYPE": 0,
    "CLASSIFICATION_TYPE": "U",
    "NORAD_CAT_ID": 40536,
    "ELEMENT_SET_NO": 999,
    "REV_AT_EPOCH": 62467,
    "BSTAR": 0.00047370905,
    "MEAN_MOTION_DOT": 0.00034117,
    "MEAN_MOTION_DDOT": 0
   }
  },
  {
   "norad": 39084,
   "name": "LANDSAT 8",
   "intl": "2013-008A",
   "group": "resource",
   "gcat": {
    "class": "C",
    "category": "IMG",
    "owner": "USGS",
    "state": "US"
   },
   "omm": {
    "OBJECT_NAME": "LANDSAT 8",
    "OBJECT_ID": "2013-008A",
    "EPOCH": "2026-07-05T08:37:52.747392",
    "MEAN_MOTION": 14.57107787,
    "ECCENTRICITY": 0.0001354,
    "INCLINATION": 98.2294,
    "RA_OF_ASC_NODE": 256.2785,
    "ARG_OF_PERICENTER": 93.9663,
    "MEAN_ANOMALY": 266.169,
    "EPHEMERIS_TYPE": 0,
    "CLASSIFICATION_TYPE": "U",
    "NORAD_CAT_ID": 39084,
    "ELEMENT_SET_NO": 999,
    "REV_AT_EPOCH": 70054,
    "BSTAR": 0.0001134,
    "MEAN_MOTION_DOT": 0.00000465,
    "MEAN_MOTION_DDOT": 0
   }
  },
  {
   "norad": 49260,
   "name": "LANDSAT 9",
   "intl": "2021-088A",
   "group": "resource",
   "gcat": {
    "class": "C",
    "category": "IMG",
    "owner": "USGS/GSFC",
    "state": "US"
   },
   "omm": {
    "OBJECT_NAME": "LANDSAT 9",
    "OBJECT_ID": "2021-088A",
    "EPOCH": "2026-07-05T04:30:46.829664",
    "MEAN_MOTION": 14.57110712,
    "ECCENTRICITY": 0.000117,
    "INCLINATION": 98.2273,
    "RA_OF_ASC_NODE": 256.1471,
    "ARG_OF_PERICENTER": 88.5749,
    "MEAN_ANOMALY": 271.5583,
    "EPHEMERIS_TYPE": 0,
    "CLASSIFICATION_TYPE": "U",
    "NORAD_CAT_ID": 49260,
    "ELEMENT_SET_NO": 999,
    "REV_AT_EPOCH": 25362,
    "BSTAR": 0.00011792,
    "MEAN_MOTION_DOT": 0.00000486,
    "MEAN_MOTION_DDOT": 0
   }
  },
  {
   "norad": 41603,
   "name": "LAPAN-A3",
   "intl": "2016-040E",
   "group": "resource",
   "gcat": {
    "class": "C",
    "category": "IMG",
    "owner": "LAPAN",
    "state": "ID"
   },
   "omm": {
    "OBJECT_NAME": "LAPAN-A3",
    "OBJECT_ID": "2016-040E",
    "EPOCH": "2026-07-05T15:52:52.715136",
    "MEAN_MOTION": 15.33233837,
    "ECCENTRICITY": 0.0008643,
    "INCLINATION": 97.1498,
    "RA_OF_ASC_NODE": 182.202,
    "ARG_OF_PERICENTER": 317.4246,
    "MEAN_ANOMALY": 42.6326,
    "EPHEMERIS_TYPE": 0,
    "CLASSIFICATION_TYPE": "U",
    "NORAD_CAT_ID": 41603,
    "ELEMENT_SET_NO": 999,
    "REV_AT_EPOCH": 55764,
    "BSTAR": 0.00014475072,
    "MEAN_MOTION_DOT": 0.00004577,
    "MEAN_MOTION_DDOT": 0
   }
  },
  {
   "norad": 29709,
   "name": "LAPAN-TUBSAT",
   "intl": "2007-001A",
   "group": "resource",
   "gcat": {
    "class": null,
    "category": null,
    "owner": null,
    "state": null
   },
   "omm": {
    "OBJECT_NAME": "LAPAN-TUBSAT",
    "OBJECT_ID": "2007-001A",
    "EPOCH": "2026-07-05T15:18:02.483136",
    "MEAN_MOTION": 14.85972709,
    "ECCENTRICITY": 0.00133547,
    "INCLINATION": 98.1348,
    "RA_OF_ASC_NODE": 186.2782,
    "ARG_OF_PERICENTER": 121.7213,
    "MEAN_ANOMALY": 238.5305,
    "EPHEMERIS_TYPE": 0,
    "CLASSIFICATION_TYPE": "U",
    "NORAD_CAT_ID": 29709,
    "ELEMENT_SET_NO": 999,
    "REV_AT_EPOCH": 5389,
    "BSTAR": 0.00015410023,
    "MEAN_MOTION_DOT": 0.0000129,
    "MEAN_MOTION_DDOT": 0
   }
  },
  {
   "norad": 59625,
   "name": "LEGION 1",
   "intl": "2024-081A",
   "group": "resource",
   "gcat": {
    "class": "B",
    "category": "IMG",
    "owner": "MAXARI",
    "state": "US"
   },
   "omm": {
    "OBJECT_NAME": "LEGION 1",
    "OBJECT_ID": "2024-081A",
    "EPOCH": "2026-07-05T08:52:20.195616",
    "MEAN_MOTION": 15.16799171,
    "ECCENTRICITY": 0.0007966,
    "INCLINATION": 97.5007,
    "RA_OF_ASC_NODE": 264.0336,
    "ARG_OF_PERICENTER": 310.445,
    "MEAN_ANOMALY": 49.6087,
    "EPHEMERIS_TYPE": 0,
    "CLASSIFICATION_TYPE": "U",
    "NORAD_CAT_ID": 59625,
    "ELEMENT_SET_NO": 999,
    "REV_AT_EPOCH": 12029,
    "BSTAR": 0.00032396,
    "MEAN_MOTION_DOT": 0.00006303,
    "MEAN_MOTION_DDOT": 0
   }
  },
  {
   "norad": 59626,
   "name": "LEGION 2",
   "intl": "2024-081B",
   "group": "resource",
   "gcat": {
    "class": "B",
    "category": "IMG",
    "owner": "MAXARI",
    "state": "US"
   },
   "omm": {
    "OBJECT_NAME": "LEGION 2",
    "OBJECT_ID": "2024-081B",
    "EPOCH": "2026-07-05T08:00:53.090784",
    "MEAN_MOTION": 15.16777676,
    "ECCENTRICITY": 0.0009826,
    "INCLINATION": 97.5008,
    "RA_OF_ASC_NODE": 264.0954,
    "ARG_OF_PERICENTER": 272.6886,
    "MEAN_ANOMALY": 87.3222,
    "EPHEMERIS_TYPE": 0,
    "CLASSIFICATION_TYPE": "U",
    "NORAD_CAT_ID": 59626,
    "ELEMENT_SET_NO": 999,
    "REV_AT_EPOCH": 12029,
    "BSTAR": 0.000285,
    "MEAN_MOTION_DOT": 0.00005535,
    "MEAN_MOTION_DDOT": 0
   }
  },
  {
   "norad": 60452,
   "name": "LEGION 3",
   "intl": "2024-146A",
   "group": "resource",
   "gcat": {
    "class": "B",
    "category": "IMG",
    "owner": "MAXARI",
    "state": "US"
   },
   "omm": {
    "OBJECT_NAME": "LEGION 3",
    "OBJECT_ID": "2024-146A",
    "EPOCH": "2026-07-05T07:38:09.850848",
    "MEAN_MOTION": 15.1561301,
    "ECCENTRICITY": 0.0008893,
    "INCLINATION": 45.0021,
    "RA_OF_ASC_NODE": 293.328,
    "ARG_OF_PERICENTER": 282.8359,
    "MEAN_ANOMALY": 77.1525,
    "EPHEMERIS_TYPE": 0,
    "CLASSIFICATION_TYPE": "U",
    "NORAD_CAT_ID": 60452,
    "ELEMENT_SET_NO": 999,
    "REV_AT_EPOCH": 10477,
    "BSTAR": 0.00030915,
    "MEAN_MOTION_DOT": 0.00005718,
    "MEAN_MOTION_DDOT": 0
   }
  },
  {
   "norad": 60453,
   "name": "LEGION 4",
   "intl": "2024-146B",
   "group": "resource",
   "gcat": {
    "class": "B",
    "category": "IMG",
    "owner": "MAXARI",
    "state": "US"
   },
   "omm": {
    "OBJECT_NAME": "LEGION 4",
    "OBJECT_ID": "2024-146B",
    "EPOCH": "2026-07-05T13:59:55.364352",
    "MEAN_MOTION": 15.16188757,
    "ECCENTRICITY": 0.00116317,
    "INCLINATION": 45.0021,
    "RA_OF_ASC_NODE": 23.7952,
    "ARG_OF_PERICENTER": 51.9024,
    "MEAN_ANOMALY": 308.2902,
    "EPHEMERIS_TYPE": 0,
    "CLASSIFICATION_TYPE": "U",
    "NORAD_CAT_ID": 60453,
    "ELEMENT_SET_NO": 999,
    "REV_AT_EPOCH": 10366,
    "BSTAR": 0.00029766663,
    "MEAN_MOTION_DOT": 0.00005592,
    "MEAN_MOTION_DDOT": 0
   }
  }
 ]
}
